[{"OBJECT_NAME":"STARLINK-3135","OBJECT_ID":"2021-104S","EPOCH":"2026-03-09T18:08:46.059360","MEAN_MOTION":15.08839991,"ECCENTRICITY":0.00015117,"INCLINATION":53.2173,"RA_OF_ASC_NODE":228.823,"ARG_OF_PERICENTER":94.7788,"MEAN_ANOMALY":265.3377,"EPHEMERIS_TYPE":0,"CLASSIFICATION_TYPE":"U","NORAD_CAT_ID":49424,"ELEMENT_SET_NO":999,"REV_AT_EPOCH":23863,"BSTAR":-7.42004e-7,"MEAN_MOTION_DOT":-3.0e-6,"MEAN_MOTION_DDOT":0},{"OBJECT_NAME":"IXPE","OBJECT_ID":"2021-121A","EPOCH":"2026-03-10T00:00:02.999808","MEAN_MOTION":15.09223379,"ECCENTRICITY":0.00072712,"INCLINATION":0.2307,"RA_OF_ASC_NODE":347.0223,"ARG_OF_PERICENTER":20.3591,"MEAN_ANOMALY":57.9535,"EPHEMERIS_TYPE":0,"CLASSIFICATION_TYPE":"U","NORAD_CAT_ID":49954,"ELEMENT_SET_NO":999,"REV_AT_EPOCH":584,"BSTAR":0.0008624183,"MEAN_MOTION_DOT":0.00015078,"MEAN_MOTION_DDOT":0}]
